{
    "links": {
        "self": "http://www.neowsapp.com/rest/v1/neo/3780787?api_key=iIulBulltgU6a56xZRHN4H3l9WmuAYTsLGpBGhQ2"
    },
    "id": "3780787",
    "neo_reference_id": "3780787",
    "name": "(2017 QZ2)",
    "designation": "2017 QZ2",
    "nasa_jpl_url": "http://ssd.jpl.nasa.gov/sbdb.cgi?sstr=3780787",
    "absolute_magnitude_h": 23.8,
    "estimated_diameter": {
        "kilometers": {
            "estimated_diameter_min": 0.046190746,
            "estimated_diameter_max": 0.1032856481
        },
        "meters": {
            "estimated_diameter_min": 46.1907460282,
            "estimated_diameter_max": 103.2856480504
        },
        "miles": {
            "estimated_diameter_min": 0.0287015901,
            "estimated_diameter_max": 0.0641787064
        },
        "feet": {
            "estimated_diameter_min": 151.544447199,
            "estimated_diameter_max": 338.8636855496
        }
    },
    "is_potentially_hazardous_asteroid": false,
    "close_approach_data": [
        {
            "close_approach_date": "2017-07-31",
            "close_approach_date_full": "2017-Jul-31 13:49",
            "epoch_date_close_approach": 1501508940000,
            "relative_velocity": {
                "kilometers_per_second": "5.1822214726",
                "kilometers_per_hour": "18655.9973013224",
                "miles_per_hour": "11592.1112120356"
            },
            "miss_distance": {
                "astronomical": "0.2040570855",
                "lunar": "79.3782062595",
                "kilometers": "30526505.349207885",
                "miles": "18968290.852663413"
            },
            "orbiting_body": "Earth"
        }
    ],
    "orbital_data": {
        "orbit_id": "2",
        "orbit_determination_date": "2019-06-05 06:24:26",
        "first_observation_date": "2017-07-27",
        "last_observation_date": "2017-08-21",
        "data_arc_in_days": 25,
        "observations_used": 13,
        "orbit_uncertainty": "9",
        "minimum_orbit_intersection": ".201517",
        "jupiter_tisserand_invariant": "4.240",
        "epoch_osculation": "2457978.5",
        "eccentricity": ".2627508054436878",
        "semi_major_axis": "1.639834160549047",
        "inclination": "9.882702214683759",
        "ascending_node_longitude": "140.0231269546421",
        "orbital_period": "767.0052220093224",
        "perihelion_distance": "1.208966414070711",
        "perihelion_argument": "158.0745671304239",
        "aphelion_distance": "2.070701907027382",
        "perihelion_time": "2457952.168186395742",
        "mean_anomaly": "12.35904609971177",
        "mean_motion": ".4693579517710565",
        "equinox": "J2000",
        "orbit_class": {
            "orbit_class_type": "AMO",
            "orbit_class_description": "Near-Earth asteroid orbits similar to that of 1221 Amor",
            "orbit_class_range": "1.017 AU < q (perihelion) < 1.3 AU"
        }
    },
    "is_sentry_object": false
}